{"type": "FeatureCollection", "features": [ {"type": "Feature", "properties": {"norad_id": 32289, "name": "YAOGAN-3", "group": "resource", "lat": -29.18472460373827, "lon": 32.754271643962866, "alt_km": 604.3177277971427, "timestamp": "2025-12-27T20:30:58.944037+00:00", "meta": {"OBJECT_NAME": "YAOGAN-3", "OBJECT_ID": "2007-055A", "EPOCH": "2025-12-27T12:35:21.970176", "MEAN_MOTION": 14.89933051, "ECCENTRICITY": 0.0001171, "INCLINATION": 97.8356, "RA_OF_ASC_NODE": 28.0157, "ARG_OF_PERICENTER": 79.1839, "MEAN_ANOMALY": 280.951, "EPHEMERIS_TYPE": 0, "CLASSIFICATION_TYPE": "U", "NORAD_CAT_ID": 32289, "ELEMENT_SET_NO": 999, "REV_AT_EPOCH": 98029, "BSTAR": 0.0004423, "MEAN_MOTION_DOT": 4.203e-05, "MEAN_MOTION_DDOT": 0}, "tle": {"line1": "1 32289U 07055A   25361.52455984  .00004203  00000+0  44230-3 0  9994", "line2": "2 32289  97.8356  28.0157 0001171  79.1839 280.9510 14.89933051980290"}}, "geometry": {"type": "Point", "coordinates": [32.754271643962866, -29.18472460373827]}}, {"type": "Feature", "properties": {"norad_id": 32376, "name": "COSMO-SKYMED 2", "group": "resource", "lat": -9.248606834752035, "lon": 1.6585380482687968, "alt_km": 626.9333448601537, "timestamp": "2025-12-27T20:30:58.944048+00:00", "meta": {"OBJECT_NAME": "COSMO-SKYMED 2", "OBJECT_ID": "2007-059A", "EPOCH": "2025-12-27T14:48:16.889760", "MEAN_MOTION": 14.82156389, "ECCENTRICITY": 0.0001289, "INCLINATION": 97.8813, "RA_OF_ASC_NODE": 182.7167, "ARG_OF_PERICENTER": 83.0799, "MEAN_ANOMALY": 277.0561, "EPHEMERIS_TYPE": 0, "CLASSIFICATION_TYPE": "U", "NORAD_CAT_ID": 32376, "ELEMENT_SET_NO": 999, "REV_AT_EPOCH": 97658, "BSTAR": 0.000102, "MEAN_MOTION_DOT": 7.6e-06, "MEAN_MOTION_DDOT": 0}, "tle": {"line1": "1 32376U 07059A   25361.61686215  .00000760  00000+0  10200-3 0  9992", "line2": "2 32376  97.8813 182.7167 0001289  83.0799 277.0561 14.82156389976587"}}, "geometry": {"type": "Point", "coordinates": [1.6585380482687968, -9.248606834752035]}}, {"type": "Feature", "properties": {"norad_id": 32382, "name": "RADARSAT-2", "group": "resource", "lat": -4.187091799824461, "lon": -174.40815221542414, "alt_km": 795.3918683001602, "timestamp": "2025-12-27T20:30:58.944059+00:00", "meta": {"OBJECT_NAME": "RADARSAT-2", "OBJECT_ID": "2007-061A", "EPOCH": "2025-12-27T12:56:27.643776", "MEAN_MOTION": 14.29986252, "ECCENTRICITY": 0.0001142, "INCLINATION": 98.5803, "RA_OF_ASC_NODE": 5.9141, "ARG_OF_PERICENTER": 84.2386, "MEAN_ANOMALY": 275.8926, "EPHEMERIS_TYPE": 0, "CLASSIFICATION_TYPE": "U", "NORAD_CAT_ID": 32382, "ELEMENT_SET_NO": 999, "REV_AT_EPOCH": 94142, "BSTAR": 9.4114e-05, "MEAN_MOTION_DOT": 1.99e-06, "MEAN_MOTION_DDOT": 0}, "tle": {"line1": "1 32382U 07061A   25361.53920884  .00000199  00000+0  94114-4 0  9999", "line2": "2 32382  98.5803   5.9141 0001142  84.2386 275.8926 14.29986252941429"}}, "geometry": {"type": "Point", "coordinates": [-174.40815221542414, -4.187091799824461]}}, {"type": "Feature", "properties": {"norad_id": 32783, "name": "CARTOSAT-2A", "group": "resource", "lat": 25.131497367423755, "lon": -125.11357280690761, "alt_km": 639.0532871620235, "timestamp": "2025-12-27T20:30:58.944069+00:00", "meta": {"OBJECT_NAME": "CARTOSAT-2A", "OBJECT_ID": "2008-021A", "EPOCH": "2025-12-27T13:19:27.693696", "MEAN_MOTION": 14.78952326, "ECCENTRICITY": 0.0010874, "INCLINATION": 97.7908, "RA_OF_ASC_NODE": 50.9138, "ARG_OF_PERICENTER": 314.9851, "MEAN_ANOMALY": 45.0479, "EPHEMERIS_TYPE": 0, "CLASSIFICATION_TYPE": "U", "NORAD_CAT_ID": 32783, "ELEMENT_SET_NO": 999, "REV_AT_EPOCH": 95343, "BSTAR": 0.00011042, "MEAN_MOTION_DOT": 7.65e-06, "MEAN_MOTION_DDOT": 0}, "tle": {"line1": "1 32783U 08021A   25361.55518164  .00000765  00000+0  11042-3 0  9994", "line2": "2 32783  97.7908  50.9138 0010874 314.9851  45.0479 14.78952326953432"}}, "geometry": {"type": "Point", "coordinates": [-125.11357280690761, 25.131497367423755]}}, {"type": "Feature", "properties": {"norad_id": 33320, "name": "HUANJING 1A (HJ-1A)", "group": "resource", "lat": -79.26068409832713, "lon": 124.35396810032194, "alt_km": 624.3139147315987, "timestamp": "2025-12-27T20:30:58.944080+00:00", "meta": {"OBJECT_NAME": "HUANJING 1A (HJ-1A)", "OBJECT_ID": "2008-041A", "EPOCH": "2025-12-27T12:51:36.740160", "MEAN_MOTION": 14.83442965, "ECCENTRICITY": 0.0018968, "INCLINATION": 97.6556, "RA_OF_ASC_NODE": 349.2173, "ARG_OF_PERICENTER": 347.0455, "MEAN_ANOMALY": 13.027, "EPHEMERIS_TYPE": 0, "CLASSIFICATION_TYPE": "U", "NORAD_CAT_ID": 33320, "ELEMENT_SET_NO": 999, "REV_AT_EPOCH": 93295, "BSTAR": 0.00029296, "MEAN_MOTION_DOT": 2.362e-05, "MEAN_MOTION_DDOT": 0}, "tle": {"line1": "1 33320U 08041A   25361.53584190  .00002362  00000+0  29296-3 0  9999", "line2": "2 33320  97.6556 349.2173 0018968 347.0455  13.0270 14.83442965932957"}}, "geometry": {"type": "Point", "coordinates": [124.35396810032194, -79.26068409832713]}}, {"type": "Feature", "properties": {"norad_id": 33321, "name": "HUANJING 1B (HJ-1B)", "group": "resource", "lat": 81.86450028607646, "lon": -116.91050342694088, "alt_km": 601.6514772909904, "timestamp": "2025-12-27T20:30:58.944091+00:00", "meta": {"OBJECT_NAME": "HUANJING 1B (HJ-1B)", "OBJECT_ID": "2008-041B", "EPOCH": "2025-12-27T13:37:27.381792", "MEAN_MOTION": 14.82861912, "ECCENTRICITY": 0.0037632, "INCLINATION": 97.6414, "RA_OF_ASC_NODE": 352.9057, "ARG_OF_PERICENTER": 28.686, "MEAN_ANOMALY": 331.6413, "EPHEMERIS_TYPE": 0, "CLASSIFICATION_TYPE": "U", "NORAD_CAT_ID": 33321, "ELEMENT_SET_NO": 999, "REV_AT_EPOCH": 93297, "BSTAR": 0.00019347, "MEAN_MOTION_DOT": 1.534e-05, "MEAN_MOTION_DDOT": 0}, "tle": {"line1": "1 33321U 08041B   25361.56767803  .00001534  00000+0  19347-3 0  9993", "line2": "2 33321  97.6414 352.9057 0037632  28.6860 331.6413 14.82861912932970"}}, "geometry": {"type": "Point", "coordinates": [-116.91050342694088, 81.86450028607646]}}, {"type": "Feature", "properties": {"norad_id": 33331, "name": "GEOEYE 1", "group": "resource", "lat": 4.921497170511377, "lon": -106.35158601707982, "alt_km": 678.7602610149543, "timestamp": "2025-12-27T20:30:58.944101+00:00", "meta": {"OBJECT_NAME": "GEOEYE 1", "OBJECT_ID": "2008-042A", "EPOCH": "2025-12-27T11:31:21.136800", "MEAN_MOTION": 14.64720256, "ECCENTRICITY": 0.0003115, "INCLINATION": 98.1235, "RA_OF_ASC_NODE": 72.5738, "ARG_OF_PERICENTER": 221.6064, "MEAN_ANOMALY": 138.4902, "EPHEMERIS_TYPE": 0, "CLASSIFICATION_TYPE": "U", "NORAD_CAT_ID": 33331, "ELEMENT_SET_NO": 999, "REV_AT_EPOCH": 92501, "BSTAR": 0.00013581, "MEAN_MOTION_DOT": 6.76e-06, "MEAN_MOTION_DDOT": 0}, "tle": {"line1": "1 33331U 08042A   25361.48010575  .00000676  00000+0  13581-3 0  9993", "line2": "2 33331  98.1235  72.5738 0003115 221.6064 138.4902 14.64720256925017"}}, "geometry": {"type": "Point", "coordinates": [-106.35158601707982, 4.921497170511377]}}, {"type": "Feature", "properties": {"norad_id": 33396, "name": "THEOS", "group": "resource", "lat": 51.94896235656023, "lon": -109.37621636366589, "alt_km": 819.4466279851495, "timestamp": "2025-12-27T20:30:58.944112+00:00", "meta": {"OBJECT_NAME": "THEOS", "OBJECT_ID": "2008-049A", "EPOCH": "2025-12-27T11:27:53.671392", "MEAN_MOTION": 14.20100118, "ECCENTRICITY": 0.0001213, "INCLINATION": 98.5843, "RA_OF_ASC_NODE": 59.131, "ARG_OF_PERICENTER": 91.6836, "MEAN_ANOMALY": 268.448, "EPHEMERIS_TYPE": 0, "CLASSIFICATION_TYPE": "U", "NORAD_CAT_ID": 33396, "ELEMENT_SET_NO": 999, "REV_AT_EPOCH": 89359, "BSTAR": 8.9433e-05, "MEAN_MOTION_DOT": 1.48e-06, "MEAN_MOTION_DDOT": 0}, "tle": {"line1": "1 33396U 08049A   25361.47770453  .00000148  00000+0  89433-4 0  9992", "line2": "2 33396  98.5843  59.1310 0001213  91.6836 268.4480 14.20100118893596"}}, "geometry": {"type": "Point", "coordinates": [-109.37621636366589, 51.94896235656023]}}, {"type": "Feature", "properties": {"norad_id": 33412, "name": "COSMO-SKYMED 3", "group": "resource", "lat": 9.696634788472258, "lon": 33.85179046984896, "alt_km": 543.5750060379723, "timestamp": "2025-12-27T20:30:58.944138+00:00", "meta": {"OBJECT_NAME": "COSMO-SKYMED 3", "OBJECT_ID": "2008-054A", "EPOCH": "2025-12-27T13:23:02.059008", "MEAN_MOTION": 15.05481738, "ECCENTRICITY": 0.0017071, "INCLINATION": 97.8451, "RA_OF_ASC_NODE": 212.1997, "ARG_OF_PERICENTER": 124.5952, "MEAN_ANOMALY": 235.6887, "EPHEMERIS_TYPE": 0, "CLASSIFICATION_TYPE": "U", "NORAD_CAT_ID": 33412, "ELEMENT_SET_NO": 999, "REV_AT_EPOCH": 93110, "BSTAR": 0.00025041, "MEAN_MOTION_DOT": 3.545e-05, "MEAN_MOTION_DDOT": 0}, "tle": {"line1": "1 33412U 08054A   25361.55766272  .00003545  00000+0  25041-3 0  9998", "line2": "2 33412  97.8451 212.1997 0017071 124.5952 235.6887 15.05481738931109"}}, "geometry": {"type": "Point", "coordinates": [33.85179046984896, 9.696634788472258]}}, {"type": "Feature", "properties": {"norad_id": 33446, "name": "YAOGAN-4", "group": "resource", "lat": -2.9965067078748637, "lon": -67.77531958956394, "alt_km": 623.7144576236215, "timestamp": "2025-12-27T20:30:58.944151+00:00", "meta": {"OBJECT_NAME": "YAOGAN-4", "OBJECT_ID": "2008-061A", "EPOCH": "2025-12-27T09:11:33.320256", "MEAN_MOTION": 14.82726039, "ECCENTRICITY": 0.0012973, "INCLINATION": 97.9199, "RA_OF_ASC_NODE": 291.3399, "ARG_OF_PERICENTER": 271.2097, "MEAN_ANOMALY": 88.763, "EPHEMERIS_TYPE": 0, "CLASSIFICATION_TYPE": "U", "NORAD_CAT_ID": 33446, "ELEMENT_SET_NO": 999, "REV_AT_EPOCH": 92020, "BSTAR": 0.00020996, "MEAN_MOTION_DOT": 1.643e-05, "MEAN_MOTION_DDOT": 0}, "tle": {"line1": "1 33446U 08061A   25361.38302454  .00001643  00000+0  20996-3 0  9993", "line2": "2 33446  97.9199 291.3399 0012973 271.2097  88.7630 14.82726039920209"}}, "geometry": {"type": "Point", "coordinates": [-67.77531958956394, -2.9965067078748637]}}]}